QIANFAN-1               
1 60379U 24140A   25230.85536511  .00000116  00000+0  16087-3 0  9994
2 60379  88.9832 311.2694 0017831 182.8130 177.2923 13.50959252 51709
QIANFAN-2               
1 60380U 24140B   25230.88406699  .00000104  00000+0  14215-3 0  9990
2 60380  88.9818 311.1218 0014122 154.5517 205.6333 13.50965687 51767
QIANFAN-3               
1 60381U 24140C   25230.89229296  .00000100  00000+0  13542-3 0  9996
2 60381  88.9811 311.2621 0014840 166.6458 193.5089 13.50959693 51678
QIANFAN-4               
1 60382U 24140D   25230.86771516  .00000103  00000+0  14106-3 0  9991
2 60382  88.9835 311.1333 0014264 157.0820 203.0971 13.50959325 51793
QIANFAN-5               
1 60383U 24140E   25230.91709211  .00000108  00000+0  14853-3 0  9995
2 60383  88.9811 311.2854 0015700 177.8743 182.2477 13.50962469 51665
QIANFAN-6               
1 60384U 24140F   25230.86354710  .00000105  00000+0  14340-3 0  9998
2 60384  88.9837 311.0063 0014185 162.5764 197.5877 13.50958924 51859
QIANFAN-7               
1 60385U 24140G   25230.87997135  .00000481  00000+0  18958-3 0  9990
2 60385  88.9836 307.3314 0017071  67.6617 292.6385 14.27516107 53867
QIANFAN-8               
1 60386U 24140H   25230.87182597  .00000108  00000+0  14813-3 0  9991
2 60386  88.9839 311.2408 0017539 166.2279 193.9354 13.50962822 51702
